{
"type": "FeatureCollection",
"name": "project_roads",
"crs": { "type": "name", "properties": { "name": "urn:ogc:def:crs:OGC:1.3:CRS84" } },
"features": [
{ "type": "Feature", "properties": { "name": "Irrid Amin Road IB", "status": "Ongoing", "category": "Roads", "packageName": "Beledweyne Investments", "stage": "completed_ongoing", "network": "nagaad", "sourceFile": "SURP-II Investments completed and ongoing/1B. Package 1B (3km) Ongoing/Irrid Amin Road IB (3km).gpkg", "sourceFormat": "gpkg", "lengthKm": 3.0, "inFlood": 1 }, "geometry": { "type": "MultiLineString", "coordinates": [ [ [ 45.222222, 4.743888 ], [ 45.249899, 4.742937 ] ] ] } },
{ "type": "Feature", "properties": { "name": "Inner Ring Road", "status": "Ongoing", "category": "Roads", "packageName": "Beledweyne Investments", "stage": "completed_ongoing", "network": "nagaad", "sourceFile": "SURP-II Investments completed and ongoing/2. Package 2 (3.25km) Ongoing/Inner Ring Road (3.25km).gpkg", "sourceFormat": "gpkg", "lengthKm": 3.25, "inFlood": 1 }, "geometry": { "type": "MultiLineString", "coordinates": [ [ [ 45.19841029075365, 4.734143922670306 ], [ 45.198503037517561, 4.733884048690344 ], [ 45.198583609335707, 4.733674629480432 ], [ 45.198640772898919, 4.733512870555315 ], [ 45.198679392942623, 4.733409607543776 ], [ 45.198712301578936, 4.733344219355748 ], [ 45.1987505208808, 4.733251056257992 ], [ 45.198825415665567, 4.733064325427041 ], [ 45.198906179787237, 4.732948435099949 ], [ 45.198965157459632, 4.732859067282691 ], [ 45.19902916408531, 4.732653285634396 ], [ 45.199133111389457, 4.732351692485299 ], [ 45.199186248161617, 4.732121691012261 ], [ 45.199186220445448, 4.731962678231283 ], [ 45.199166081009331, 4.731762506335771 ], [ 45.199130382307857, 4.731551965132388 ], [ 45.199075554141437, 4.731448403676161 ], [ 45.198976771162513, 4.73118204985855 ], [ 45.198955405902808, 4.730908234374644 ], [ 45.198962795034227, 4.730597805934647 ], [ 45.198979874611368, 4.730325286389668 ], [ 45.199071988739291, 4.729889117821475 ], [ 45.199208702943771, 4.729518153407908 ], [ 45.199285855079182, 4.729270213679062 ], [ 45.199462859578333, 4.728784387384372 ], [ 45.199686436694691, 4.728307781168865 ], [ 45.19991293845554, 4.727846395528233 ], [ 45.20011647543263, 4.727403215066287 ], [ 45.200268903179733, 4.727168826624655 ], [ 45.200640740533792, 4.726916256014678 ], [ 45.201042962219823, 4.726704484589059 ], [ 45.201586209389511, 4.7264206303409 ], [ 45.201700803180472, 4.726396405945443 ], [ 45.201820650568578, 4.726454855808861 ], [ 45.201942065277287, 4.726524146624945 ], [ 45.202213502252619, 4.726714407880804 ], [ 45.202436353524448, 4.72688725877658 ], [ 45.20252436290528, 4.726959897823645 ], [ 45.202655841293421, 4.727036761446247 ], [ 45.202743307401491, 4.727092039801338 ], [ 45.202906808798019, 4.727129510680049 ], [ 45.203139340535017, 4.727137297643337 ], [ 45.203407813036932, 4.72714033720226 ], [ 45.203708699987288, 4.727139682207493 ], [ 45.203913314585712, 4.727162636801213 ], [ 45.204218789735137, 4.727166540737586 ], [ 45.204491923003388, 4.727170679647932 ], [ 45.204913290357482, 4.727188325795455 ], [ 45.205276111228272, 4.727192961710764 ], [ 45.20540251289836, 4.727223900075158 ], [ 45.205493727196789, 4.727274023684548 ], [ 45.205630477318039, 4.727503372035574 ], [ 45.205721551954007, 4.727812193411978 ], [ 45.205821523851313, 4.728182365196409 ], [ 45.205887525963028, 4.728404893770397 ], [ 45.205968737288352, 4.728643500047983 ], [ 45.206064156233808, 4.728980325243928 ], [ 45.206265248141762, 4.729602473955612 ], [ 45.206455144530374, 4.730307758144644 ], [ 45.206589610370507, 4.730721817833635 ], [ 45.206728871535887, 4.731150407328525 ], [ 45.206858464957229, 4.731575598579247 ], [ 45.206979719200319, 4.73202422940853 ], [ 45.207153633609472, 4.73253355267824 ], [ 45.207285909635381, 4.732887995332954 ], [ 45.207362570032963, 4.73312631397529 ], [ 45.207413767926603, 4.733306185869856 ], [ 45.207494859518143, 4.733606437976102 ], [ 45.207514739858347, 4.733704680257484 ], [ 45.20760709611973, 4.734001916823079 ], [ 45.207723994021947, 4.734453289957025 ], [ 45.207792776429038, 4.734727332623684 ], [ 45.207795069285609, 4.735028815106877 ], [ 45.207679693988972, 4.735314733091202 ], [ 45.207553796965001, 4.735442018822333 ], [ 45.207365790761401, 4.735500024367134 ], [ 45.207219551319717, 4.735508338560765 ], [ 45.207008474298561, 4.735499649801189 ], [ 45.206865246290597, 4.73548729087954 ], [ 45.206729209868037, 4.735454399056603 ], [ 45.206642535382493, 4.735433970561389 ], [ 45.20651078099413, 4.735389309331672 ], [ 45.20616318663339, 4.735278700475907 ], [ 45.205929950340398, 4.735197714650762 ], [ 45.20573364290621, 4.735193667412786 ], [ 45.205447904185249, 4.735292431838171 ], [ 45.205156487979977, 4.735434569403614 ], [ 45.204877688018463, 4.735578665767959 ], [ 45.204564251436409, 4.735697474448792 ], [ 45.204200187173797, 4.735863656840245 ], [ 45.203960341269223, 4.735973198560584 ], [ 45.203419820028053, 4.736214096210472 ], [ 45.202935346801468, 4.736427904355008 ], [ 45.202328790968913, 4.736670332798962 ], [ 45.202216374441107, 4.736715389757441 ], [ 45.202167068464128, 4.73673618271725 ], [ 45.202138128600559, 4.736711409697484 ], [ 45.202096980394103, 4.736669162408363 ], [ 45.20206456247535, 4.736561377958927 ], [ 45.201992371887961, 4.736410578283976 ], [ 45.201891209727023, 4.736194610220677 ], [ 45.201770512401858, 4.735869621179654 ], [ 45.201602240233242, 4.735412298663136 ], [ 45.201516733664747, 4.73513287168437 ], [ 45.201349457625327, 4.735018059928517 ] ] ] } },
{ "type": "Feature", "properties": { "name": "Sheikh Hassan Barsane Road", "status": "Ongoing", "category": "Roads", "packageName": "Beledweyne Investments", "stage": "completed_ongoing", "network": "nagaad", "sourceFile": "SURP-II Investments completed and ongoing/3. Package 3 (3km) Ongoing/Sheikh Hassan Barsane Road (3km).gpkg", "sourceFormat": "gpkg", "lengthKm": 3.0, "inFlood": 1 }, "geometry": { "type": "MultiLineString", "coordinates": [ [ [ 45.18979871118399, 4.730452377555148 ], [ 45.188988756964029, 4.729890778697831 ], [ 45.18727187871395, 4.728589653580357 ], [ 45.185227010487601, 4.727147640387995 ], [ 45.183493159640882, 4.725929081007484 ], [ 45.180640805533038, 4.723889025490089 ], [ 45.177139143045707, 4.721400335593328 ], [ 45.174818869091958, 4.719778136573233 ], [ 45.1723014547593, 4.718056151556165 ], [ 45.171240686171707, 4.717490590246525 ], [ 45.17121868738483, 4.717490574537444 ], [ 45.170563049554367, 4.717098112399137 ], [ 45.170064831311223, 4.716752109305363 ], [ 45.169629313778238, 4.716408950147955 ], [ 45.16936402807935, 4.716118859900656 ], [ 45.169288234897422, 4.715817329150825 ], [ 45.169436520621588, 4.715463228314547 ], [ 45.170074332764322, 4.714239933353459 ] ] ] } },
{ "type": "Feature", "properties": { "name": "liiqliqato bridge and road connection", "status": "Design ready", "category": "Bridge", "packageName": "Beledweyne Investments", "stage": "design_ready", "network": "nagaad", "sourceFile": "Design Ready Investments/Liiqliqato Bridge and Connected Roads.kmz", "sourceFormat": "kmz", "lengthKm": 1.587, "inFlood": 1 }, "geometry": { "type": "LineString", "coordinates": [ [ 45.203147832251531, 4.734624402868529 ], [ 45.202465296744343, 4.734965848331555 ], [ 45.202065481455683, 4.735162263559102 ], [ 45.201835842660692, 4.735184467462308 ], [ 45.201682794308553, 4.735184468250441 ], [ 45.201584528642172, 4.735140139282573 ], [ 45.200821581118767, 4.734747663096272 ], [ 45.200363152012592, 4.734692585705076 ], [ 45.199782069210578, 4.734563717978351 ], [ 45.199384078280623, 4.734490339648353 ], [ 45.199013271124713, 4.734425724352885 ], [ 45.198142750560208, 4.734106123494217 ], [ 45.197109103631377, 4.733724708966976 ], [ 45.196310278016277, 4.733503700055019 ], [ 45.195293968482673, 4.733220009029978 ], [ 45.194396430710931, 4.732961701777159 ], [ 45.193703799635777, 4.732812588438025 ], [ 45.193034364069668, 4.732664602361087 ], [ 45.192051910509171, 4.732105579794945 ], [ 45.190844582098777, 4.731253772344722 ], [ 45.189912632378068, 4.730724846902608 ] ] } },
{ "type": "Feature", "properties": { "name": "IRRID AMIN PACKAGE 1A", "status": "Design ready", "category": "Roads", "packageName": "Beledweyne Investments", "stage": "design_ready", "network": "nagaad", "sourceFile": "Design Ready Investments/PACKAGE 1A RD#1 IRRID AMIN.kml", "sourceFormat": "kml", "lengthKm": 3.004, "inFlood": 1 }, "geometry": { "type": "LineString", "coordinates": [ [ 45.202509368216191, 4.733092808676372 ], [ 45.202629303182711, 4.733274580697025 ], [ 45.20276819058035, 4.733509324248364 ], [ 45.202983179044857, 4.733915290283411 ], [ 45.203093393513562, 4.734154766419293 ], [ 45.20322400614792, 4.734409159545852 ], [ 45.203412920428001, 4.734777690966097 ], [ 45.203603915670861, 4.735244845386769 ], [ 45.203889953688297, 4.735779887285651 ], [ 45.20419445054678, 4.736471147338913 ], [ 45.204314930343081, 4.736704067517367 ], [ 45.205094420841107, 4.73826306275941 ], [ 45.206070690112107, 4.740205012824307 ], [ 45.206778403808158, 4.741692554694797 ], [ 45.207215873524483, 4.742663415918818 ], [ 45.207439246043563, 4.743055848033568 ], [ 45.207696741458683, 4.743389834178413 ], [ 45.207830279457397, 4.743570028977233 ], [ 45.207964196743937, 4.743725278873375 ], [ 45.208241338738148, 4.743936106511086 ], [ 45.208709327442129, 4.744172383354829 ], [ 45.209151246313994, 4.744313958373143 ], [ 45.209625644732533, 4.744378215205087 ], [ 45.210038076278657, 4.744405239613616 ], [ 45.210540469118598, 4.744385848755545 ], [ 45.211107135534057, 4.744355349627828 ], [ 45.21162678391763, 4.744338035634725 ], [ 45.212179086091567, 4.744302327340018 ], [ 45.213145398670001, 4.744259307972797 ], [ 45.214240825270288, 4.744234867365229 ], [ 45.21502646633801, 4.744208708819798 ], [ 45.215584089471037, 4.744176980764574 ], [ 45.21640405658291, 4.744161828408325 ], [ 45.21709963073944, 4.744138527207244 ], [ 45.218429841447502, 4.744097864030632 ], [ 45.21990808232291, 4.744045424817838 ], [ 45.220505729387568, 4.744014416249039 ], [ 45.22104381369202, 4.744003583653927 ], [ 45.221351464263137, 4.744003347657378 ], [ 45.221565599147588, 4.743998690932392 ], [ 45.221742438890317, 4.74399322316436 ], [ 45.221883918183977, 4.74398965017706 ], [ 45.222324982291092, 4.743974486472387 ], [ 45.222648909402928, 4.743972791777179 ], [ 45.222942831007323, 4.743957831546934 ] ] } },
{ "type": "Feature", "properties": { "name": "ROAD #8A", "status": "Design ready", "category": "Roads", "packageName": "Beledweyne Investments", "stage": "design_ready", "network": "nagaad", "sourceFile": "Design Ready Investments/ROAD #8A Farah Afi Road.kml", "sourceFormat": "kml", "lengthKm": 0.89, "inFlood": 1 }, "geometry": { "type": "LineString", "coordinates": [ [ 45.205593956502057, 4.739285881448061 ], [ 45.205743936537402, 4.739416985020372 ], [ 45.205805616475047, 4.739487270045681 ], [ 45.206024596171147, 4.739640144050612 ], [ 45.20617456908532, 4.739784099616021 ], [ 45.206386666765717, 4.739910126088616 ], [ 45.206529306061547, 4.740043301551522 ], [ 45.206722569439243, 4.740178105289363 ], [ 45.207061865988351, 4.740425094859586 ], [ 45.20748696522476, 4.740750585733725 ], [ 45.207824573036689, 4.741032898203097 ], [ 45.208006745389092, 4.741155747590807 ], [ 45.208113748033767, 4.741239248780786 ], [ 45.208267158300337, 4.741349465697414 ], [ 45.20844195343949, 4.741478234679946 ], [ 45.208629965677048, 4.741635005297433 ], [ 45.208893759990737, 4.741799645264321 ], [ 45.20912366284869, 4.742002398503595 ], [ 45.209266531143413, 4.742116670546955 ], [ 45.209475071966267, 4.742271562494984 ], [ 45.209945624073818, 4.742633402839886 ], [ 45.210311585318912, 4.742922046509394 ], [ 45.210587860423047, 4.74313520263996 ], [ 45.210817830203453, 4.743307467791512 ], [ 45.211024308442603, 4.743523009537757 ], [ 45.211215579341101, 4.743663335553068 ], [ 45.211435510163838, 4.743844218607806 ], [ 45.21162942919063, 4.744011981148335 ], [ 45.211786870880438, 4.744177527947554 ], [ 45.211855299053937, 4.744288849009859 ] ] } },
{ "type": "Feature", "properties": { "name": "ROAD#4 Buundo Labaad-Airport Road", "status": "Design ready", "category": "Roads", "packageName": "Beledweyne Investments", "stage": "design_ready", "network": "nagaad", "sourceFile": "Design Ready Investments/ROAD#4 Buundo Labaad-Airport Road.kml", "sourceFormat": "kml", "lengthKm": 2.998, "inFlood": 1 }, "geometry": { "type": "LineString", "coordinates": [ [ 45.224431727307973, 4.743980596825179 ], [ 45.22449974853788, 4.744529176916312 ], [ 45.224559281843277, 4.745104731803976 ], [ 45.224542248446028, 4.74564895321999 ], [ 45.224539265945033, 4.746061587039138 ], [ 45.224491727314273, 4.746667088857147 ], [ 45.224537609207459, 4.747139312045785 ], [ 45.224583224157954, 4.747597217092271 ], [ 45.224629712922827, 4.747979811977523 ], [ 45.224704670579897, 4.748364743410812 ], [ 45.224768660237167, 4.7487105883647 ], [ 45.224807167098731, 4.748964836000622 ], [ 45.224867227361933, 4.749203116891577 ], [ 45.224938940099321, 4.749420793981022 ], [ 45.225002027784583, 4.7495943340976 ], [ 45.225039239212236, 4.749805622811703 ], [ 45.225122047207599, 4.750090384313352 ], [ 45.225191745494783, 4.750335033834362 ], [ 45.225254646300101, 4.750528231252023 ], [ 45.225321628420851, 4.750739734286494 ], [ 45.225368197080961, 4.750905481462183 ], [ 45.225410118489407, 4.751067817445814 ], [ 45.225522845830163, 4.751257352161216 ], [ 45.225615931851003, 4.751413330675632 ], [ 45.225797523476643, 4.751646183408709 ], [ 45.225974165455398, 4.751891681403359 ], [ 45.226194217296538, 4.752143965170398 ], [ 45.2265203407595, 4.752498621106482 ], [ 45.226789714382967, 4.752849536529726 ], [ 45.226948663788647, 4.753038435269397 ], [ 45.227108422077293, 4.753260618398126 ], [ 45.227270794039477, 4.753454381460817 ], [ 45.227658017810427, 4.753998849704129 ], [ 45.227964633019468, 4.754436700608331 ], [ 45.228330646925272, 4.754942325676121 ], [ 45.22867347690638, 4.755428072593594 ], [ 45.228913812224533, 4.755763285673858 ], [ 45.229162002573261, 4.756132595188959 ], [ 45.229407497055242, 4.756456543902039 ], [ 45.230016593080038, 4.757219702949468 ], [ 45.230199400256787, 4.757476605366782 ], [ 45.230319373655028, 4.757717348312949 ], [ 45.230283168607649, 4.758047934080079 ], [ 45.230110060881387, 4.759161025706636 ], [ 45.230054899322418, 4.75993490877519 ], [ 45.230165169293826, 4.7603831988273 ], [ 45.230439819611661, 4.760854688970778 ], [ 45.23067707631494, 4.761193979794452 ], [ 45.230837681983893, 4.76145566707324 ], [ 45.231016825925877, 4.761957617584671 ], [ 45.231015465020462, 4.762384947995188 ], [ 45.230820822269159, 4.762897362711109 ], [ 45.230612371388617, 4.763238319572614 ], [ 45.230469632436026, 4.763522150910973 ], [ 45.230457554758928, 4.763743647371253 ], [ 45.230519257281919, 4.764002052639576 ], [ 45.230741494264237, 4.764573476566011 ], [ 45.230967086630557, 4.765064612725245 ], [ 45.231373763532737, 4.765963687298362 ], [ 45.231699867156522, 4.766692368246699 ], [ 45.232081478880161, 4.767425719835423 ], [ 45.232332812869167, 4.767997885646607 ], [ 45.232580778491958, 4.768493909725691 ] ] } },
{ "type": "Feature", "properties": { "name": "Road 11 E", "status": "Design ready", "category": "Roads", "packageName": "Beledweyne Investments", "stage": "design_ready", "network": "nagaad", "sourceFile": "Design Ready Investments/Road #11 YOBSAN MARKET.kml", "sourceFormat": "kml", "lengthKm": 0.056, "inFlood": 1 }, "geometry": { "type": "LineString", "coordinates": [ [ 45.204738784617362, 4.737419336446155 ], [ 45.205006978615273, 4.737294434980483 ], [ 45.20519988263257, 4.737221518438968 ] ] } },
{ "type": "Feature", "properties": { "name": "Road 11D", "status": "Design ready", "category": "Roads", "packageName": "Beledweyne Investments", "stage": "design_ready", "network": "nagaad", "sourceFile": "Design Ready Investments/Road #11 YOBSAN MARKET.kml", "sourceFormat": "kml", "lengthKm": 0.055, "inFlood": 1 }, "geometry": { "type": "LineString", "coordinates": [ [ 45.20483229016812, 4.735629137287672 ], [ 45.205014316742478, 4.736088677149593 ] ] } },
{ "type": "Feature", "properties": { "name": "Road 11C", "status": "Design ready", "category": "Roads", "packageName": "Beledweyne Investments", "stage": "design_ready", "network": "nagaad", "sourceFile": "Design Ready Investments/Road #11 YOBSAN MARKET.kml", "sourceFormat": "kml", "lengthKm": 0.057, "inFlood": 1 }, "geometry": { "type": "LineString", "coordinates": [ [ 45.204787688532107, 4.73632253746242 ], [ 45.204315160238437, 4.736534613356243 ] ] } },
{ "type": "Feature", "properties": { "name": "Road 11B", "status": "Design ready", "category": "Roads", "packageName": "Beledweyne Investments", "stage": "design_ready", "network": "nagaad", "sourceFile": "Design Ready Investments/Road #11 YOBSAN MARKET.kml", "sourceFormat": "kml", "lengthKm": 0.096, "inFlood": 1 }, "geometry": { "type": "LineString", "coordinates": [ [ 45.204812523649103, 4.736268029995329 ], [ 45.205014209136429, 4.736089039776139 ], [ 45.205203642667414, 4.735982491502691 ], [ 45.205413696029119, 4.735877928663009 ], [ 45.205535801667018, 4.735807592127912 ] ] } },
{ "type": "Feature", "properties": { "name": "Road 11A", "status": "Design ready", "category": "Roads", "packageName": "Beledweyne Investments", "stage": "design_ready", "network": "nagaad", "sourceFile": "Design Ready Investments/Road #11 YOBSAN MARKET.kml", "sourceFormat": "kml", "lengthKm": 0.283, "inFlood": 1 }, "geometry": { "type": "LineString", "coordinates": [ [ 45.204585208347581, 4.735733599060657 ], [ 45.204783145395751, 4.736179882755644 ], [ 45.204901988353512, 4.736572336723954 ], [ 45.204986722954601, 4.73709470746623 ], [ 45.205152830705828, 4.738210529038594 ] ] } },
{ "type": "Feature", "properties": { "name": "Road #13A Siigaalow2 Road (Sh-Hassan Barsane to Siigaalow)", "status": "Design ready", "category": "Roads", "packageName": "Beledweyne Investments", "stage": "design_ready", "network": "nagaad", "sourceFile": "Design Ready Investments/Road #13A Siigaalow2 Road (Sh-Hassan Barsane to Siigaalow).kml", "sourceFormat": "kml", "lengthKm": 0.469, "inFlood": 1 }, "geometry": { "type": "LineString", "coordinates": [ [ 45.198236452544258, 4.734209396688943 ], [ 45.198213998436508, 4.734257443135807 ], [ 45.198139613524681, 4.7343390286014 ], [ 45.197970428736198, 4.734495203616882 ], [ 45.197719721901287, 4.734671440093913 ], [ 45.197481379693762, 4.734833454920876 ], [ 45.197365553640992, 4.734955119963362 ], [ 45.197201968526002, 4.735110624625793 ], [ 45.197031481446722, 4.735245882296784 ], [ 45.196847259886738, 4.735469254986289 ], [ 45.196752349841468, 4.735631834053312 ], [ 45.196596763659151, 4.735868874339395 ], [ 45.196473755777212, 4.736038207701337 ], [ 45.196391158865083, 4.736173779303749 ], [ 45.196274293001139, 4.736424687646023 ], [ 45.19615158636249, 4.736722977400818 ], [ 45.196083345826189, 4.736912835235524 ], [ 45.196021109657252, 4.737041971890663 ], [ 45.195965702160727, 4.73720507127465 ], [ 45.195897266518372, 4.737395133873694 ], [ 45.195815126445702, 4.73757170381182 ] ] } },
{ "type": "Feature", "properties": { "name": "Road #13B Siigaalow2 Road (Sh-Hassan Barsane to Siigaalow)", "status": "Design ready", "category": "Roads", "packageName": "Beledweyne Investments", "stage": "design_ready", "network": "nagaad", "sourceFile": "Design Ready Investments/Road #13B Siigaalow2 Road (Sh-Hassan Barsane to Siigaalow).kml", "sourceFormat": "kml", "lengthKm": 0.947, "inFlood": 1 }, "geometry": { "type": "LineString", "coordinates": [ [ 45.193504939580393, 4.74350860495176 ], [ 45.193322096902598, 4.743647102193898 ], [ 45.193104488852462, 4.743999832436829 ], [ 45.192849354307633, 4.744523861781161 ], [ 45.192729616072441, 4.744708657599065 ], [ 45.192566237748707, 4.744970345955804 ], [ 45.192325272673152, 4.745225166221595 ], [ 45.192022211458912, 4.745499359180797 ], [ 45.191708619079009, 4.745741479181021 ], [ 45.191425862946438, 4.746003818129679 ], [ 45.191078348515511, 4.746304359557638 ], [ 45.190710018426358, 4.746607811628778 ], [ 45.190469897991342, 4.746922167593644 ], [ 45.190311948591521, 4.747164496277133 ], [ 45.190123689841847, 4.747489514486519 ], [ 45.189847664995987, 4.748035798040029 ], [ 45.189697205823173, 4.748354086621588 ], [ 45.189630460210417, 4.748429571045605 ], [ 45.18949539348813, 4.748600045978423 ], [ 45.189249894999627, 4.748988259629666 ], [ 45.189148826520253, 4.749197128410672 ], [ 45.189007545915729, 4.749293238581084 ], [ 45.188784152628941, 4.749389894636055 ], [ 45.188449759990561, 4.749515366295062 ], [ 45.188197542188682, 4.749630601059841 ], [ 45.187988403899347, 4.749747991826117 ] ] } },
{ "type": "Feature", "properties": { "name": "Road #6 Siigaalow Road (Liiqliiqato to Sigaalow)", "status": "Design ready", "category": "Roads", "packageName": "Beledweyne Investments", "stage": "design_ready", "network": "nagaad", "sourceFile": "Design Ready Investments/Road #6 Siigaalow Road (Liiqliiqato to Sigaalow).kml", "sourceFormat": "kml", "lengthKm": 2.529, "inFlood": 1 }, "geometry": { "type": "LineString", "coordinates": [ [ 45.197670878333817, 4.737348121457753 ], [ 45.197664578168272, 4.737528187803455 ], [ 45.197650420741681, 4.737749005940721 ], [ 45.197635816193298, 4.737970054500597 ], [ 45.197605533376027, 4.738221555424055 ], [ 45.19757397962826, 4.738490252728006 ], [ 45.197544840385881, 4.738736648894068 ], [ 45.197483839757233, 4.738950997803789 ], [ 45.197419767047087, 4.739203073893687 ], [ 45.197367457820057, 4.739392668259828 ], [ 45.197334104980648, 4.739554739002945 ], [ 45.19724794505148, 4.739843320605354 ], [ 45.197178011732987, 4.740079639279616 ], [ 45.197064110025238, 4.740291052274598 ], [ 45.196976465474577, 4.740544452745373 ], [ 45.196905275829153, 4.74073124434743 ], [ 45.196804136099587, 4.741026530444927 ], [ 45.196688251590523, 4.741321118512643 ], [ 45.196582858262879, 4.741572148686563 ], [ 45.196517997821282, 4.741769396460359 ], [ 45.196438353740689, 4.742036455705581 ], [ 45.196368157113859, 4.742205277118451 ], [ 45.196240979146822, 4.742397772524643 ], [ 45.196103471693142, 4.742670382515021 ], [ 45.195893577833907, 4.742899210305676 ], [ 45.19560644895671, 4.743246902916378 ], [ 45.195456823130741, 4.743443008703513 ], [ 45.195272057282757, 4.743670597537819 ], [ 45.195050070734041, 4.743931706008504 ], [ 45.194686130478942, 4.744400248913256 ], [ 45.194446977058341, 4.744703326917024 ], [ 45.194241031407437, 4.744939485997336 ], [ 45.194047460993538, 4.745219534984717 ], [ 45.193941996135123, 4.745378431892306 ], [ 45.193806269382833, 4.745582339777898 ], [ 45.193577501229321, 4.745789759930475 ], [ 45.193341214610868, 4.746034909058293 ], [ 45.19318005047689, 4.746232040914173 ], [ 45.193013993846947, 4.746542091781546 ], [ 45.192899278762567, 4.746832513178822 ], [ 45.192787318191641, 4.747109248130398 ], [ 45.192660596951598, 4.747383858960664 ], [ 45.192621805892067, 4.747546897871409 ], [ 45.192411735945022, 4.747802474297355 ], [ 45.192286598313899, 4.748030000826607 ], [ 45.192041425489343, 4.748316625394454 ], [ 45.191923901855432, 4.748513494984712 ], [ 45.191809241226842, 4.748728857710645 ], [ 45.19172788814835, 4.748942388437861 ], [ 45.191678510806803, 4.74918910344608 ], [ 45.191570295221183, 4.74932229359523 ], [ 45.191426378941912, 4.749419975370868 ], [ 45.191250107439551, 4.749529918716047 ], [ 45.190877156220317, 4.749664252007971 ], [ 45.190724620721127, 4.749844600549356 ], [ 45.190732011429759, 4.750050148396685 ], [ 45.190714575090027, 4.750330567704608 ], [ 45.19066148934143, 4.750588963583017 ], [ 45.190555262504112, 4.751034970582362 ], [ 45.190499604052377, 4.751349683220822 ], [ 45.19046501590239, 4.751620354243397 ], [ 45.190418318572853, 4.751904096294137 ], [ 45.190229813752651, 4.752456846412714 ], [ 45.190036951710439, 4.752865508177491 ], [ 45.189838893600218, 4.753292277835111 ], [ 45.189630478940572, 4.753694553571279 ], [ 45.189518135337437, 4.753986882127831 ], [ 45.189270226892397, 4.754458169078501 ], [ 45.189201926327399, 4.754660738768295 ], [ 45.189159833794783, 4.754860583713393 ], [ 45.189086762161928, 4.755052576920519 ], [ 45.189001409599747, 4.755275569483289 ], [ 45.188742458715197, 4.755603683113224 ], [ 45.188442126512172, 4.755914267379311 ], [ 45.188064577139713, 4.756245270081189 ], [ 45.187791964059883, 4.756497514535522 ], [ 45.18765956731589, 4.75666999922274 ], [ 45.18759311016327, 4.756817871335735 ], [ 45.1875257404037, 4.75696801244723 ], [ 45.187492569189821, 4.757037046483632 ] ] } },
{ "type": "Feature", "properties": { "name": "Road #8B Farah Afi Road (Buundo labaad to Farax Caafi Airport)", "status": "Design ready", "category": "Roads", "packageName": "Beledweyne Investments", "stage": "design_ready", "network": "nagaad", "sourceFile": "Design Ready Investments/Road #8B Farah Afi Road.kml", "sourceFormat": "kml", "lengthKm": 2.998, "inFlood": 1 }, "geometry": { "type": "LineString", "coordinates": [ [ 45.212507298061929, 4.744259868801325 ], [ 45.212545686997942, 4.74440017800765 ], [ 45.212698165258843, 4.744477890911148 ], [ 45.212859929559592, 4.744591905813107 ], [ 45.213139658361563, 4.744819016065986 ], [ 45.213325224122272, 4.744969540501048 ], [ 45.213589629197678, 4.745144528160664 ], [ 45.213795683738432, 4.745226550990023 ], [ 45.214101598347938, 4.745396693493511 ], [ 45.214428493819689, 4.745562349327708 ], [ 45.214576061219013, 4.745606063218036 ], [ 45.214735252164637, 4.745632832820411 ], [ 45.214937687757732, 4.745845188255004 ], [ 45.21517562837775, 4.746311434684075 ], [ 45.215308047903243, 4.746606673262976 ], [ 45.215621551269237, 4.747147154744871 ], [ 45.215863736164678, 4.747557467069922 ], [ 45.21614652361356, 4.74798440078615 ], [ 45.216432627515132, 4.748454379307187 ], [ 45.216683905693422, 4.748803825573372 ], [ 45.217050243292547, 4.74921656830876 ], [ 45.217367070245032, 4.749563318722361 ], [ 45.217620101049668, 4.749858901685023 ], [ 45.218099809860483, 4.750211076843627 ], [ 45.218672978645557, 4.750770134495166 ], [ 45.218910488501052, 4.751013335954963 ], [ 45.219314252266088, 4.751450437839012 ], [ 45.219705141487722, 4.751720167373657 ], [ 45.220121241964847, 4.751928745670304 ], [ 45.220473696418942, 4.752141091822946 ], [ 45.220850342240652, 4.752459098766664 ], [ 45.221144465534941, 4.752762929130486 ], [ 45.221399630572343, 4.752998831964232 ], [ 45.221622469868379, 4.753206029182937 ], [ 45.221855241848608, 4.75342155668192 ], [ 45.222151304291813, 4.753641450425324 ], [ 45.222575771365399, 4.753918269582462 ], [ 45.222955212962752, 4.754136000802635 ], [ 45.223364968974593, 4.75437538395416 ], [ 45.223720007398057, 4.754616661266103 ], [ 45.223927220574737, 4.754746971860754 ], [ 45.224109144699312, 4.754842463494392 ], [ 45.224254184452612, 4.754958232637645 ], [ 45.224696287250993, 4.755144174808061 ], [ 45.225137218957691, 4.755386287517968 ], [ 45.225428278932057, 4.755673450044819 ], [ 45.225820302831544, 4.756169528506096 ], [ 45.226400783113441, 4.756909263283791 ], [ 45.22687134857771, 4.757551770698092 ], [ 45.227451421530724, 4.75833508099442 ], [ 45.227934431970212, 4.759025742461729 ], [ 45.228431088812123, 4.759690358532909 ], [ 45.228685209653648, 4.760204530113112 ], [ 45.229478524353738, 4.761838798364047 ], [ 45.230123422924791, 4.762985910433235 ], [ 45.230415969570963, 4.763646131146202 ] ] } },
{ "type": "Feature", "properties": { "name": "Propose", "status": "Design ready", "category": "Bridge", "packageName": "Beledweyne Investments", "stage": "design_ready", "network": "nagaad", "sourceFile": "Design Ready Investments/Shabelow Bridge & Connected Roads.kmz.kml", "sourceFormat": "kml", "lengthKm": 8.727, "inFlood": 1 }, "geometry": { "type": "LineString", "coordinates": [ [ 45.242151292799257, 4.743251193567357 ], [ 45.245821911196813, 4.734807981417137 ], [ 45.250666088840553, 4.723622836500772 ], [ 45.24918817741522, 4.723040151449997 ], [ 45.248057292624992, 4.72258727839025 ], [ 45.245427559574651, 4.721414198907737 ], [ 45.243703286828051, 4.720724013665961 ], [ 45.237853492450348, 4.718191184865832 ], [ 45.229391602775031, 4.717248930130752 ], [ 45.225166890210907, 4.716884810742848 ], [ 45.222621285460363, 4.717191528233189 ], [ 45.21973609054799, 4.717629113879243 ], [ 45.217720468483087, 4.717615685417466 ], [ 45.217182689618227, 4.717867878335129 ], [ 45.214058826071657, 4.719045182344068 ], [ 45.213904897924749, 4.718773226093374 ], [ 45.21347638538176, 4.71811368039971 ], [ 45.21109171991413, 4.718786168506877 ], [ 45.210993111060581, 4.719231701685985 ], [ 45.210874009654198, 4.7193037289846 ], [ 45.209382458005237, 4.719346123391971 ], [ 45.209276301629629, 4.719446756081045 ], [ 45.209056043067903, 4.720266417453636 ], [ 45.208912127336824, 4.72093615940217 ], [ 45.208767857329534, 4.721558808820476 ], [ 45.208561611211138, 4.722112430543913 ], [ 45.208219609354792, 4.72232512971027 ], [ 45.208061135053207, 4.722705708045351 ], [ 45.207969370616652, 4.723755709847311 ], [ 45.207968616271948, 4.723716575975142 ], [ 45.207673494606503, 4.725022359024514 ], [ 45.207673002726168, 4.725040518498181 ], [ 45.207672016613337, 4.725076924233173 ], [ 45.207405019874066, 4.726185831961265 ], [ 45.207167510787841, 4.727312184114088 ], [ 45.207206002824719, 4.727789770160064 ], [ 45.207316175286792, 4.728222753373677 ], [ 45.207297018812739, 4.729408913104169 ], [ 45.207358512132437, 4.730259725083602 ], [ 45.207489320023427, 4.731445001173892 ], [ 45.207386621162463, 4.731737351284572 ], [ 45.207322519032701, 4.732036864573193 ], [ 45.206994057271608, 4.732196654812295 ] ] } }
]
}
