{
"type": "FeatureCollection",
"name": "inner-ring-road-3-25km",
"crs": { "type": "name", "properties": { "name": "urn:ogc:def:crs:OGC:1.3:CRS84" } },
"features": [
{ "type": "Feature", "properties": { "name": "Inner Ring Road", "status": "Ongoing", "category": "Roads", "packageName": "Beledweyne Investments", "stage": "completed_ongoing", "network": "nagaad", "sourceFile": "SURP-II Investments completed and ongoing/2. Package 2 (3.25km) Ongoing/Inner Ring Road (3.25km).gpkg", "sourceFormat": "gpkg", "lengthKm": 3.25 }, "geometry": { "type": "MultiLineString", "coordinates": [ [ [ 45.19841029075365, 4.734143922670306 ], [ 45.198503037517561, 4.733884048690344 ], [ 45.198583609335707, 4.733674629480432 ], [ 45.198640772898919, 4.733512870555315 ], [ 45.198679392942623, 4.733409607543776 ], [ 45.198712301578936, 4.733344219355748 ], [ 45.1987505208808, 4.733251056257992 ], [ 45.198825415665567, 4.733064325427041 ], [ 45.198906179787237, 4.732948435099949 ], [ 45.198965157459632, 4.732859067282691 ], [ 45.19902916408531, 4.732653285634396 ], [ 45.199133111389457, 4.732351692485299 ], [ 45.199186248161617, 4.732121691012261 ], [ 45.199186220445448, 4.731962678231283 ], [ 45.199166081009331, 4.731762506335771 ], [ 45.199130382307857, 4.731551965132388 ], [ 45.199075554141437, 4.731448403676161 ], [ 45.198976771162513, 4.73118204985855 ], [ 45.198955405902808, 4.730908234374644 ], [ 45.198962795034227, 4.730597805934647 ], [ 45.198979874611368, 4.730325286389668 ], [ 45.199071988739291, 4.729889117821475 ], [ 45.199208702943771, 4.729518153407908 ], [ 45.199285855079182, 4.729270213679062 ], [ 45.199462859578333, 4.728784387384372 ], [ 45.199686436694691, 4.728307781168865 ], [ 45.19991293845554, 4.727846395528233 ], [ 45.20011647543263, 4.727403215066287 ], [ 45.200268903179733, 4.727168826624655 ], [ 45.200640740533792, 4.726916256014678 ], [ 45.201042962219823, 4.726704484589059 ], [ 45.201586209389511, 4.7264206303409 ], [ 45.201700803180472, 4.726396405945443 ], [ 45.201820650568578, 4.726454855808861 ], [ 45.201942065277287, 4.726524146624945 ], [ 45.202213502252619, 4.726714407880804 ], [ 45.202436353524448, 4.72688725877658 ], [ 45.20252436290528, 4.726959897823645 ], [ 45.202655841293421, 4.727036761446247 ], [ 45.202743307401491, 4.727092039801338 ], [ 45.202906808798019, 4.727129510680049 ], [ 45.203139340535017, 4.727137297643337 ], [ 45.203407813036932, 4.72714033720226 ], [ 45.203708699987288, 4.727139682207493 ], [ 45.203913314585712, 4.727162636801213 ], [ 45.204218789735137, 4.727166540737586 ], [ 45.204491923003388, 4.727170679647932 ], [ 45.204913290357482, 4.727188325795455 ], [ 45.205276111228272, 4.727192961710764 ], [ 45.20540251289836, 4.727223900075158 ], [ 45.205493727196789, 4.727274023684548 ], [ 45.205630477318039, 4.727503372035574 ], [ 45.205721551954007, 4.727812193411978 ], [ 45.205821523851313, 4.728182365196409 ], [ 45.205887525963028, 4.728404893770397 ], [ 45.205968737288352, 4.728643500047983 ], [ 45.206064156233808, 4.728980325243928 ], [ 45.206265248141762, 4.729602473955612 ], [ 45.206455144530374, 4.730307758144644 ], [ 45.206589610370507, 4.730721817833635 ], [ 45.206728871535887, 4.731150407328525 ], [ 45.206858464957229, 4.731575598579247 ], [ 45.206979719200319, 4.73202422940853 ], [ 45.207153633609472, 4.73253355267824 ], [ 45.207285909635381, 4.732887995332954 ], [ 45.207362570032963, 4.73312631397529 ], [ 45.207413767926603, 4.733306185869856 ], [ 45.207494859518143, 4.733606437976102 ], [ 45.207514739858347, 4.733704680257484 ], [ 45.20760709611973, 4.734001916823079 ], [ 45.207723994021947, 4.734453289957025 ], [ 45.207792776429038, 4.734727332623684 ], [ 45.207795069285609, 4.735028815106877 ], [ 45.207679693988972, 4.735314733091202 ], [ 45.207553796965001, 4.735442018822333 ], [ 45.207365790761401, 4.735500024367134 ], [ 45.207219551319717, 4.735508338560765 ], [ 45.207008474298561, 4.735499649801189 ], [ 45.206865246290597, 4.73548729087954 ], [ 45.206729209868037, 4.735454399056603 ], [ 45.206642535382493, 4.735433970561389 ], [ 45.20651078099413, 4.735389309331672 ], [ 45.20616318663339, 4.735278700475907 ], [ 45.205929950340398, 4.735197714650762 ], [ 45.20573364290621, 4.735193667412786 ], [ 45.205447904185249, 4.735292431838171 ], [ 45.205156487979977, 4.735434569403614 ], [ 45.204877688018463, 4.735578665767959 ], [ 45.204564251436409, 4.735697474448792 ], [ 45.204200187173797, 4.735863656840245 ], [ 45.203960341269223, 4.735973198560584 ], [ 45.203419820028053, 4.736214096210472 ], [ 45.202935346801468, 4.736427904355008 ], [ 45.202328790968913, 4.736670332798962 ], [ 45.202216374441107, 4.736715389757441 ], [ 45.202167068464128, 4.73673618271725 ], [ 45.202138128600559, 4.736711409697484 ], [ 45.202096980394103, 4.736669162408363 ], [ 45.20206456247535, 4.736561377958927 ], [ 45.201992371887961, 4.736410578283976 ], [ 45.201891209727023, 4.736194610220677 ], [ 45.201770512401858, 4.735869621179654 ], [ 45.201602240233242, 4.735412298663136 ], [ 45.201516733664747, 4.73513287168437 ], [ 45.201349457625327, 4.735018059928517 ] ] ] } }
]
}
