{
"type": "FeatureCollection",
"name": "irrid-amin-road-ib-3km",
"crs": { "type": "name", "properties": { "name": "urn:ogc:def:crs:OGC:1.3:CRS84" } },
"features": [
{ "type": "Feature", "properties": { "name": "Irrid Amin Road IB", "status": "Ongoing", "category": "Roads", "packageName": "Beledweyne Investments", "stage": "completed_ongoing", "network": "nagaad", "sourceFile": "SURP-II Investments completed and ongoing/1B. Package 1B (3km) Ongoing/Irrid Amin Road IB (3km).gpkg", "sourceFormat": "gpkg", "lengthKm": 3.0 }, "geometry": { "type": "MultiLineString", "coordinates": [ [ [ 45.222222, 4.743888 ], [ 45.249899, 4.742937 ] ] ] } }
]
}
