{
"type": "FeatureCollection",
"name": "liiqliqato-bridge-and-connected-roads",
"crs": { "type": "name", "properties": { "name": "urn:ogc:def:crs:OGC:1.3:CRS84" } },
"features": [
{ "type": "Feature", "properties": { "name": "liiqliqato bridge and road connection", "status": "Design ready", "category": "Bridge", "packageName": "Beledweyne Investments", "stage": "design_ready", "network": "nagaad", "sourceFile": "Design Ready Investments/Liiqliqato Bridge and Connected Roads.kmz", "sourceFormat": "kmz", "lengthKm": 1.587 }, "geometry": { "type": "LineString", "coordinates": [ [ 45.203147832251531, 4.734624402868529 ], [ 45.202465296744343, 4.734965848331555 ], [ 45.202065481455683, 4.735162263559102 ], [ 45.201835842660692, 4.735184467462308 ], [ 45.201682794308553, 4.735184468250441 ], [ 45.201584528642172, 4.735140139282573 ], [ 45.200821581118767, 4.734747663096272 ], [ 45.200363152012592, 4.734692585705076 ], [ 45.199782069210578, 4.734563717978351 ], [ 45.199384078280623, 4.734490339648353 ], [ 45.199013271124713, 4.734425724352885 ], [ 45.198142750560208, 4.734106123494217 ], [ 45.197109103631377, 4.733724708966976 ], [ 45.196310278016277, 4.733503700055019 ], [ 45.195293968482673, 4.733220009029978 ], [ 45.194396430710931, 4.732961701777159 ], [ 45.193703799635777, 4.732812588438025 ], [ 45.193034364069668, 4.732664602361087 ], [ 45.192051910509171, 4.732105579794945 ], [ 45.190844582098777, 4.731253772344722 ], [ 45.189912632378068, 4.730724846902608 ] ] } }
]
}
