{
"type": "FeatureCollection",
"name": "package-1a-rd-1-irrid-amin",
"crs": { "type": "name", "properties": { "name": "urn:ogc:def:crs:OGC:1.3:CRS84" } },
"features": [
{ "type": "Feature", "properties": { "name": "IRRID AMIN PACKAGE 1A", "status": "Design ready", "category": "Roads", "packageName": "Beledweyne Investments", "stage": "design_ready", "network": "nagaad", "sourceFile": "Design Ready Investments/PACKAGE 1A RD#1 IRRID AMIN.kml", "sourceFormat": "kml", "lengthKm": 3.004 }, "geometry": { "type": "LineString", "coordinates": [ [ 45.202509368216191, 4.733092808676372 ], [ 45.202629303182711, 4.733274580697025 ], [ 45.20276819058035, 4.733509324248364 ], [ 45.202983179044857, 4.733915290283411 ], [ 45.203093393513562, 4.734154766419293 ], [ 45.20322400614792, 4.734409159545852 ], [ 45.203412920428001, 4.734777690966097 ], [ 45.203603915670861, 4.735244845386769 ], [ 45.203889953688297, 4.735779887285651 ], [ 45.20419445054678, 4.736471147338913 ], [ 45.204314930343081, 4.736704067517367 ], [ 45.205094420841107, 4.73826306275941 ], [ 45.206070690112107, 4.740205012824307 ], [ 45.206778403808158, 4.741692554694797 ], [ 45.207215873524483, 4.742663415918818 ], [ 45.207439246043563, 4.743055848033568 ], [ 45.207696741458683, 4.743389834178413 ], [ 45.207830279457397, 4.743570028977233 ], [ 45.207964196743937, 4.743725278873375 ], [ 45.208241338738148, 4.743936106511086 ], [ 45.208709327442129, 4.744172383354829 ], [ 45.209151246313994, 4.744313958373143 ], [ 45.209625644732533, 4.744378215205087 ], [ 45.210038076278657, 4.744405239613616 ], [ 45.210540469118598, 4.744385848755545 ], [ 45.211107135534057, 4.744355349627828 ], [ 45.21162678391763, 4.744338035634725 ], [ 45.212179086091567, 4.744302327340018 ], [ 45.213145398670001, 4.744259307972797 ], [ 45.214240825270288, 4.744234867365229 ], [ 45.21502646633801, 4.744208708819798 ], [ 45.215584089471037, 4.744176980764574 ], [ 45.21640405658291, 4.744161828408325 ], [ 45.21709963073944, 4.744138527207244 ], [ 45.218429841447502, 4.744097864030632 ], [ 45.21990808232291, 4.744045424817838 ], [ 45.220505729387568, 4.744014416249039 ], [ 45.22104381369202, 4.744003583653927 ], [ 45.221351464263137, 4.744003347657378 ], [ 45.221565599147588, 4.743998690932392 ], [ 45.221742438890317, 4.74399322316436 ], [ 45.221883918183977, 4.74398965017706 ], [ 45.222324982291092, 4.743974486472387 ], [ 45.222648909402928, 4.743972791777179 ], [ 45.222942831007323, 4.743957831546934 ] ] } }
]
}
