{
"type": "FeatureCollection",
"name": "road-13b-siigaalow2-road-sh-hassan-barsane-to-siigaalow",
"crs": { "type": "name", "properties": { "name": "urn:ogc:def:crs:OGC:1.3:CRS84" } },
"features": [
{ "type": "Feature", "properties": { "name": "Road #13B Siigaalow2 Road (Sh-Hassan Barsane to Siigaalow)", "status": "Design ready", "category": "Roads", "packageName": "Beledweyne Investments", "stage": "design_ready", "network": "nagaad", "sourceFile": "Design Ready Investments/Road #13B Siigaalow2 Road (Sh-Hassan Barsane to Siigaalow).kml", "sourceFormat": "kml", "lengthKm": 0.947 }, "geometry": { "type": "LineString", "coordinates": [ [ 45.193504939580393, 4.74350860495176 ], [ 45.193322096902598, 4.743647102193898 ], [ 45.193104488852462, 4.743999832436829 ], [ 45.192849354307633, 4.744523861781161 ], [ 45.192729616072441, 4.744708657599065 ], [ 45.192566237748707, 4.744970345955804 ], [ 45.192325272673152, 4.745225166221595 ], [ 45.192022211458912, 4.745499359180797 ], [ 45.191708619079009, 4.745741479181021 ], [ 45.191425862946438, 4.746003818129679 ], [ 45.191078348515511, 4.746304359557638 ], [ 45.190710018426358, 4.746607811628778 ], [ 45.190469897991342, 4.746922167593644 ], [ 45.190311948591521, 4.747164496277133 ], [ 45.190123689841847, 4.747489514486519 ], [ 45.189847664995987, 4.748035798040029 ], [ 45.189697205823173, 4.748354086621588 ], [ 45.189630460210417, 4.748429571045605 ], [ 45.18949539348813, 4.748600045978423 ], [ 45.189249894999627, 4.748988259629666 ], [ 45.189148826520253, 4.749197128410672 ], [ 45.189007545915729, 4.749293238581084 ], [ 45.188784152628941, 4.749389894636055 ], [ 45.188449759990561, 4.749515366295062 ], [ 45.188197542188682, 4.749630601059841 ], [ 45.187988403899347, 4.749747991826117 ] ] } }
]
}
