{
"type": "FeatureCollection",
"name": "road-4-buundo-labaad-airport-road",
"crs": { "type": "name", "properties": { "name": "urn:ogc:def:crs:OGC:1.3:CRS84" } },
"features": [
{ "type": "Feature", "properties": { "name": "ROAD#4 Buundo Labaad-Airport Road", "status": "Design ready", "category": "Roads", "packageName": "Beledweyne Investments", "stage": "design_ready", "network": "nagaad", "sourceFile": "Design Ready Investments/ROAD#4 Buundo Labaad-Airport Road.kml", "sourceFormat": "kml", "lengthKm": 2.998 }, "geometry": { "type": "LineString", "coordinates": [ [ 45.224431727307973, 4.743980596825179 ], [ 45.22449974853788, 4.744529176916312 ], [ 45.224559281843277, 4.745104731803976 ], [ 45.224542248446028, 4.74564895321999 ], [ 45.224539265945033, 4.746061587039138 ], [ 45.224491727314273, 4.746667088857147 ], [ 45.224537609207459, 4.747139312045785 ], [ 45.224583224157954, 4.747597217092271 ], [ 45.224629712922827, 4.747979811977523 ], [ 45.224704670579897, 4.748364743410812 ], [ 45.224768660237167, 4.7487105883647 ], [ 45.224807167098731, 4.748964836000622 ], [ 45.224867227361933, 4.749203116891577 ], [ 45.224938940099321, 4.749420793981022 ], [ 45.225002027784583, 4.7495943340976 ], [ 45.225039239212236, 4.749805622811703 ], [ 45.225122047207599, 4.750090384313352 ], [ 45.225191745494783, 4.750335033834362 ], [ 45.225254646300101, 4.750528231252023 ], [ 45.225321628420851, 4.750739734286494 ], [ 45.225368197080961, 4.750905481462183 ], [ 45.225410118489407, 4.751067817445814 ], [ 45.225522845830163, 4.751257352161216 ], [ 45.225615931851003, 4.751413330675632 ], [ 45.225797523476643, 4.751646183408709 ], [ 45.225974165455398, 4.751891681403359 ], [ 45.226194217296538, 4.752143965170398 ], [ 45.2265203407595, 4.752498621106482 ], [ 45.226789714382967, 4.752849536529726 ], [ 45.226948663788647, 4.753038435269397 ], [ 45.227108422077293, 4.753260618398126 ], [ 45.227270794039477, 4.753454381460817 ], [ 45.227658017810427, 4.753998849704129 ], [ 45.227964633019468, 4.754436700608331 ], [ 45.228330646925272, 4.754942325676121 ], [ 45.22867347690638, 4.755428072593594 ], [ 45.228913812224533, 4.755763285673858 ], [ 45.229162002573261, 4.756132595188959 ], [ 45.229407497055242, 4.756456543902039 ], [ 45.230016593080038, 4.757219702949468 ], [ 45.230199400256787, 4.757476605366782 ], [ 45.230319373655028, 4.757717348312949 ], [ 45.230283168607649, 4.758047934080079 ], [ 45.230110060881387, 4.759161025706636 ], [ 45.230054899322418, 4.75993490877519 ], [ 45.230165169293826, 4.7603831988273 ], [ 45.230439819611661, 4.760854688970778 ], [ 45.23067707631494, 4.761193979794452 ], [ 45.230837681983893, 4.76145566707324 ], [ 45.231016825925877, 4.761957617584671 ], [ 45.231015465020462, 4.762384947995188 ], [ 45.230820822269159, 4.762897362711109 ], [ 45.230612371388617, 4.763238319572614 ], [ 45.230469632436026, 4.763522150910973 ], [ 45.230457554758928, 4.763743647371253 ], [ 45.230519257281919, 4.764002052639576 ], [ 45.230741494264237, 4.764573476566011 ], [ 45.230967086630557, 4.765064612725245 ], [ 45.231373763532737, 4.765963687298362 ], [ 45.231699867156522, 4.766692368246699 ], [ 45.232081478880161, 4.767425719835423 ], [ 45.232332812869167, 4.767997885646607 ], [ 45.232580778491958, 4.768493909725691 ] ] } }
]
}
