{
"type": "FeatureCollection",
"name": "road-11-yobsan-market",
"crs": { "type": "name", "properties": { "name": "urn:ogc:def:crs:OGC:1.3:CRS84" } },
"features": [
{ "type": "Feature", "properties": { "name": "Road 11 E", "status": "Design ready", "category": "Roads", "packageName": "Beledweyne Investments", "stage": "design_ready", "network": "nagaad", "sourceFile": "Design Ready Investments/Road #11 YOBSAN MARKET.kml", "sourceFormat": "kml", "lengthKm": 0.056 }, "geometry": { "type": "LineString", "coordinates": [ [ 45.204738784617362, 4.737419336446155 ], [ 45.205006978615273, 4.737294434980483 ], [ 45.20519988263257, 4.737221518438968 ] ] } },
{ "type": "Feature", "properties": { "name": "Road 11D", "status": "Design ready", "category": "Roads", "packageName": "Beledweyne Investments", "stage": "design_ready", "network": "nagaad", "sourceFile": "Design Ready Investments/Road #11 YOBSAN MARKET.kml", "sourceFormat": "kml", "lengthKm": 0.055 }, "geometry": { "type": "LineString", "coordinates": [ [ 45.20483229016812, 4.735629137287672 ], [ 45.205014316742478, 4.736088677149593 ] ] } },
{ "type": "Feature", "properties": { "name": "Road 11C", "status": "Design ready", "category": "Roads", "packageName": "Beledweyne Investments", "stage": "design_ready", "network": "nagaad", "sourceFile": "Design Ready Investments/Road #11 YOBSAN MARKET.kml", "sourceFormat": "kml", "lengthKm": 0.057 }, "geometry": { "type": "LineString", "coordinates": [ [ 45.204787688532107, 4.73632253746242 ], [ 45.204315160238437, 4.736534613356243 ] ] } },
{ "type": "Feature", "properties": { "name": "Road 11B", "status": "Design ready", "category": "Roads", "packageName": "Beledweyne Investments", "stage": "design_ready", "network": "nagaad", "sourceFile": "Design Ready Investments/Road #11 YOBSAN MARKET.kml", "sourceFormat": "kml", "lengthKm": 0.096 }, "geometry": { "type": "LineString", "coordinates": [ [ 45.204812523649103, 4.736268029995329 ], [ 45.205014209136429, 4.736089039776139 ], [ 45.205203642667414, 4.735982491502691 ], [ 45.205413696029119, 4.735877928663009 ], [ 45.205535801667018, 4.735807592127912 ] ] } },
{ "type": "Feature", "properties": { "name": "Road 11A", "status": "Design ready", "category": "Roads", "packageName": "Beledweyne Investments", "stage": "design_ready", "network": "nagaad", "sourceFile": "Design Ready Investments/Road #11 YOBSAN MARKET.kml", "sourceFormat": "kml", "lengthKm": 0.283 }, "geometry": { "type": "LineString", "coordinates": [ [ 45.204585208347581, 4.735733599060657 ], [ 45.204783145395751, 4.736179882755644 ], [ 45.204901988353512, 4.736572336723954 ], [ 45.204986722954601, 4.73709470746623 ], [ 45.205152830705828, 4.738210529038594 ] ] } }
]
}
