{
"type": "FeatureCollection",
"name": "road-8b-farah-afi-road",
"crs": { "type": "name", "properties": { "name": "urn:ogc:def:crs:OGC:1.3:CRS84" } },
"features": [
{ "type": "Feature", "properties": { "name": "Road #8B Farah Afi Road (Buundo labaad to Farax Caafi Airport)", "status": "Design ready", "category": "Roads", "packageName": "Beledweyne Investments", "stage": "design_ready", "network": "nagaad", "sourceFile": "Design Ready Investments/Road #8B Farah Afi Road.kml", "sourceFormat": "kml", "lengthKm": 2.998 }, "geometry": { "type": "LineString", "coordinates": [ [ 45.212507298061929, 4.744259868801325 ], [ 45.212545686997942, 4.74440017800765 ], [ 45.212698165258843, 4.744477890911148 ], [ 45.212859929559592, 4.744591905813107 ], [ 45.213139658361563, 4.744819016065986 ], [ 45.213325224122272, 4.744969540501048 ], [ 45.213589629197678, 4.745144528160664 ], [ 45.213795683738432, 4.745226550990023 ], [ 45.214101598347938, 4.745396693493511 ], [ 45.214428493819689, 4.745562349327708 ], [ 45.214576061219013, 4.745606063218036 ], [ 45.214735252164637, 4.745632832820411 ], [ 45.214937687757732, 4.745845188255004 ], [ 45.21517562837775, 4.746311434684075 ], [ 45.215308047903243, 4.746606673262976 ], [ 45.215621551269237, 4.747147154744871 ], [ 45.215863736164678, 4.747557467069922 ], [ 45.21614652361356, 4.74798440078615 ], [ 45.216432627515132, 4.748454379307187 ], [ 45.216683905693422, 4.748803825573372 ], [ 45.217050243292547, 4.74921656830876 ], [ 45.217367070245032, 4.749563318722361 ], [ 45.217620101049668, 4.749858901685023 ], [ 45.218099809860483, 4.750211076843627 ], [ 45.218672978645557, 4.750770134495166 ], [ 45.218910488501052, 4.751013335954963 ], [ 45.219314252266088, 4.751450437839012 ], [ 45.219705141487722, 4.751720167373657 ], [ 45.220121241964847, 4.751928745670304 ], [ 45.220473696418942, 4.752141091822946 ], [ 45.220850342240652, 4.752459098766664 ], [ 45.221144465534941, 4.752762929130486 ], [ 45.221399630572343, 4.752998831964232 ], [ 45.221622469868379, 4.753206029182937 ], [ 45.221855241848608, 4.75342155668192 ], [ 45.222151304291813, 4.753641450425324 ], [ 45.222575771365399, 4.753918269582462 ], [ 45.222955212962752, 4.754136000802635 ], [ 45.223364968974593, 4.75437538395416 ], [ 45.223720007398057, 4.754616661266103 ], [ 45.223927220574737, 4.754746971860754 ], [ 45.224109144699312, 4.754842463494392 ], [ 45.224254184452612, 4.754958232637645 ], [ 45.224696287250993, 4.755144174808061 ], [ 45.225137218957691, 4.755386287517968 ], [ 45.225428278932057, 4.755673450044819 ], [ 45.225820302831544, 4.756169528506096 ], [ 45.226400783113441, 4.756909263283791 ], [ 45.22687134857771, 4.757551770698092 ], [ 45.227451421530724, 4.75833508099442 ], [ 45.227934431970212, 4.759025742461729 ], [ 45.228431088812123, 4.759690358532909 ], [ 45.228685209653648, 4.760204530113112 ], [ 45.229478524353738, 4.761838798364047 ], [ 45.230123422924791, 4.762985910433235 ], [ 45.230415969570963, 4.763646131146202 ] ] } }
]
}
