{
"type": "FeatureCollection",
"name": "road-13a-siigaalow2-road-sh-hassan-barsane-to-siigaalow",
"crs": { "type": "name", "properties": { "name": "urn:ogc:def:crs:OGC:1.3:CRS84" } },
"features": [
{ "type": "Feature", "properties": { "name": "Road #13A Siigaalow2 Road (Sh-Hassan Barsane to Siigaalow)", "status": "Design ready", "category": "Roads", "packageName": "Beledweyne Investments", "stage": "design_ready", "network": "nagaad", "sourceFile": "Design Ready Investments/Road #13A Siigaalow2 Road (Sh-Hassan Barsane to Siigaalow).kml", "sourceFormat": "kml", "lengthKm": 0.469 }, "geometry": { "type": "LineString", "coordinates": [ [ 45.198236452544258, 4.734209396688943 ], [ 45.198213998436508, 4.734257443135807 ], [ 45.198139613524681, 4.7343390286014 ], [ 45.197970428736198, 4.734495203616882 ], [ 45.197719721901287, 4.734671440093913 ], [ 45.197481379693762, 4.734833454920876 ], [ 45.197365553640992, 4.734955119963362 ], [ 45.197201968526002, 4.735110624625793 ], [ 45.197031481446722, 4.735245882296784 ], [ 45.196847259886738, 4.735469254986289 ], [ 45.196752349841468, 4.735631834053312 ], [ 45.196596763659151, 4.735868874339395 ], [ 45.196473755777212, 4.736038207701337 ], [ 45.196391158865083, 4.736173779303749 ], [ 45.196274293001139, 4.736424687646023 ], [ 45.19615158636249, 4.736722977400818 ], [ 45.196083345826189, 4.736912835235524 ], [ 45.196021109657252, 4.737041971890663 ], [ 45.195965702160727, 4.73720507127465 ], [ 45.195897266518372, 4.737395133873694 ], [ 45.195815126445702, 4.73757170381182 ] ] } }
]
}
