{
"type": "FeatureCollection",
"name": "road-8a-farah-afi-road",
"crs": { "type": "name", "properties": { "name": "urn:ogc:def:crs:OGC:1.3:CRS84" } },
"features": [
{ "type": "Feature", "properties": { "name": "ROAD #8A", "status": "Design ready", "category": "Roads", "packageName": "Beledweyne Investments", "stage": "design_ready", "network": "nagaad", "sourceFile": "Design Ready Investments/ROAD #8A Farah Afi Road.kml", "sourceFormat": "kml", "lengthKm": 0.89 }, "geometry": { "type": "LineString", "coordinates": [ [ 45.205593956502057, 4.739285881448061 ], [ 45.205743936537402, 4.739416985020372 ], [ 45.205805616475047, 4.739487270045681 ], [ 45.206024596171147, 4.739640144050612 ], [ 45.20617456908532, 4.739784099616021 ], [ 45.206386666765717, 4.739910126088616 ], [ 45.206529306061547, 4.740043301551522 ], [ 45.206722569439243, 4.740178105289363 ], [ 45.207061865988351, 4.740425094859586 ], [ 45.20748696522476, 4.740750585733725 ], [ 45.207824573036689, 4.741032898203097 ], [ 45.208006745389092, 4.741155747590807 ], [ 45.208113748033767, 4.741239248780786 ], [ 45.208267158300337, 4.741349465697414 ], [ 45.20844195343949, 4.741478234679946 ], [ 45.208629965677048, 4.741635005297433 ], [ 45.208893759990737, 4.741799645264321 ], [ 45.20912366284869, 4.742002398503595 ], [ 45.209266531143413, 4.742116670546955 ], [ 45.209475071966267, 4.742271562494984 ], [ 45.209945624073818, 4.742633402839886 ], [ 45.210311585318912, 4.742922046509394 ], [ 45.210587860423047, 4.74313520263996 ], [ 45.210817830203453, 4.743307467791512 ], [ 45.211024308442603, 4.743523009537757 ], [ 45.211215579341101, 4.743663335553068 ], [ 45.211435510163838, 4.743844218607806 ], [ 45.21162942919063, 4.744011981148335 ], [ 45.211786870880438, 4.744177527947554 ], [ 45.211855299053937, 4.744288849009859 ] ] } }
]
}
