{
"type": "FeatureCollection",
"name": "road-6-siigaalow-road-liiqliiqato-to-sigaalow",
"crs": { "type": "name", "properties": { "name": "urn:ogc:def:crs:OGC:1.3:CRS84" } },
"features": [
{ "type": "Feature", "properties": { "name": "Road #6 Siigaalow Road (Liiqliiqato to Sigaalow)", "status": "Design ready", "category": "Roads", "packageName": "Beledweyne Investments", "stage": "design_ready", "network": "nagaad", "sourceFile": "Design Ready Investments/Road #6 Siigaalow Road (Liiqliiqato to Sigaalow).kml", "sourceFormat": "kml", "lengthKm": 2.529 }, "geometry": { "type": "LineString", "coordinates": [ [ 45.197670878333817, 4.737348121457753 ], [ 45.197664578168272, 4.737528187803455 ], [ 45.197650420741681, 4.737749005940721 ], [ 45.197635816193298, 4.737970054500597 ], [ 45.197605533376027, 4.738221555424055 ], [ 45.19757397962826, 4.738490252728006 ], [ 45.197544840385881, 4.738736648894068 ], [ 45.197483839757233, 4.738950997803789 ], [ 45.197419767047087, 4.739203073893687 ], [ 45.197367457820057, 4.739392668259828 ], [ 45.197334104980648, 4.739554739002945 ], [ 45.19724794505148, 4.739843320605354 ], [ 45.197178011732987, 4.740079639279616 ], [ 45.197064110025238, 4.740291052274598 ], [ 45.196976465474577, 4.740544452745373 ], [ 45.196905275829153, 4.74073124434743 ], [ 45.196804136099587, 4.741026530444927 ], [ 45.196688251590523, 4.741321118512643 ], [ 45.196582858262879, 4.741572148686563 ], [ 45.196517997821282, 4.741769396460359 ], [ 45.196438353740689, 4.742036455705581 ], [ 45.196368157113859, 4.742205277118451 ], [ 45.196240979146822, 4.742397772524643 ], [ 45.196103471693142, 4.742670382515021 ], [ 45.195893577833907, 4.742899210305676 ], [ 45.19560644895671, 4.743246902916378 ], [ 45.195456823130741, 4.743443008703513 ], [ 45.195272057282757, 4.743670597537819 ], [ 45.195050070734041, 4.743931706008504 ], [ 45.194686130478942, 4.744400248913256 ], [ 45.194446977058341, 4.744703326917024 ], [ 45.194241031407437, 4.744939485997336 ], [ 45.194047460993538, 4.745219534984717 ], [ 45.193941996135123, 4.745378431892306 ], [ 45.193806269382833, 4.745582339777898 ], [ 45.193577501229321, 4.745789759930475 ], [ 45.193341214610868, 4.746034909058293 ], [ 45.19318005047689, 4.746232040914173 ], [ 45.193013993846947, 4.746542091781546 ], [ 45.192899278762567, 4.746832513178822 ], [ 45.192787318191641, 4.747109248130398 ], [ 45.192660596951598, 4.747383858960664 ], [ 45.192621805892067, 4.747546897871409 ], [ 45.192411735945022, 4.747802474297355 ], [ 45.192286598313899, 4.748030000826607 ], [ 45.192041425489343, 4.748316625394454 ], [ 45.191923901855432, 4.748513494984712 ], [ 45.191809241226842, 4.748728857710645 ], [ 45.19172788814835, 4.748942388437861 ], [ 45.191678510806803, 4.74918910344608 ], [ 45.191570295221183, 4.74932229359523 ], [ 45.191426378941912, 4.749419975370868 ], [ 45.191250107439551, 4.749529918716047 ], [ 45.190877156220317, 4.749664252007971 ], [ 45.190724620721127, 4.749844600549356 ], [ 45.190732011429759, 4.750050148396685 ], [ 45.190714575090027, 4.750330567704608 ], [ 45.19066148934143, 4.750588963583017 ], [ 45.190555262504112, 4.751034970582362 ], [ 45.190499604052377, 4.751349683220822 ], [ 45.19046501590239, 4.751620354243397 ], [ 45.190418318572853, 4.751904096294137 ], [ 45.190229813752651, 4.752456846412714 ], [ 45.190036951710439, 4.752865508177491 ], [ 45.189838893600218, 4.753292277835111 ], [ 45.189630478940572, 4.753694553571279 ], [ 45.189518135337437, 4.753986882127831 ], [ 45.189270226892397, 4.754458169078501 ], [ 45.189201926327399, 4.754660738768295 ], [ 45.189159833794783, 4.754860583713393 ], [ 45.189086762161928, 4.755052576920519 ], [ 45.189001409599747, 4.755275569483289 ], [ 45.188742458715197, 4.755603683113224 ], [ 45.188442126512172, 4.755914267379311 ], [ 45.188064577139713, 4.756245270081189 ], [ 45.187791964059883, 4.756497514535522 ], [ 45.18765956731589, 4.75666999922274 ], [ 45.18759311016327, 4.756817871335735 ], [ 45.1875257404037, 4.75696801244723 ], [ 45.187492569189821, 4.757037046483632 ] ] } }
]
}
