{
"type": "FeatureCollection",
"name": "shabelow-bridge-connected-roads-kmz",
"crs": { "type": "name", "properties": { "name": "urn:ogc:def:crs:OGC:1.3:CRS84" } },
"features": [
{ "type": "Feature", "properties": { "name": "Propose", "status": "Design ready", "category": "Bridge", "packageName": "Beledweyne Investments", "stage": "design_ready", "network": "nagaad", "sourceFile": "Design Ready Investments/Shabelow Bridge & Connected Roads.kmz.kml", "sourceFormat": "kml", "lengthKm": 8.727 }, "geometry": { "type": "LineString", "coordinates": [ [ 45.242151292799257, 4.743251193567357 ], [ 45.245821911196813, 4.734807981417137 ], [ 45.250666088840553, 4.723622836500772 ], [ 45.24918817741522, 4.723040151449997 ], [ 45.248057292624992, 4.72258727839025 ], [ 45.245427559574651, 4.721414198907737 ], [ 45.243703286828051, 4.720724013665961 ], [ 45.237853492450348, 4.718191184865832 ], [ 45.229391602775031, 4.717248930130752 ], [ 45.225166890210907, 4.716884810742848 ], [ 45.222621285460363, 4.717191528233189 ], [ 45.21973609054799, 4.717629113879243 ], [ 45.217720468483087, 4.717615685417466 ], [ 45.217182689618227, 4.717867878335129 ], [ 45.214058826071657, 4.719045182344068 ], [ 45.213904897924749, 4.718773226093374 ], [ 45.21347638538176, 4.71811368039971 ], [ 45.21109171991413, 4.718786168506877 ], [ 45.210993111060581, 4.719231701685985 ], [ 45.210874009654198, 4.7193037289846 ], [ 45.209382458005237, 4.719346123391971 ], [ 45.209276301629629, 4.719446756081045 ], [ 45.209056043067903, 4.720266417453636 ], [ 45.208912127336824, 4.72093615940217 ], [ 45.208767857329534, 4.721558808820476 ], [ 45.208561611211138, 4.722112430543913 ], [ 45.208219609354792, 4.72232512971027 ], [ 45.208061135053207, 4.722705708045351 ], [ 45.207969370616652, 4.723755709847311 ], [ 45.207968616271948, 4.723716575975142 ], [ 45.207673494606503, 4.725022359024514 ], [ 45.207673002726168, 4.725040518498181 ], [ 45.207672016613337, 4.725076924233173 ], [ 45.207405019874066, 4.726185831961265 ], [ 45.207167510787841, 4.727312184114088 ], [ 45.207206002824719, 4.727789770160064 ], [ 45.207316175286792, 4.728222753373677 ], [ 45.207297018812739, 4.729408913104169 ], [ 45.207358512132437, 4.730259725083602 ], [ 45.207489320023427, 4.731445001173892 ], [ 45.207386621162463, 4.731737351284572 ], [ 45.207322519032701, 4.732036864573193 ], [ 45.206994057271608, 4.732196654812295 ] ] } }
]
}
